{"type": "FeatureCollection", "features": [ {"type": "Feature", "properties": {"norad_id": 31476, "name": "FENGYUN 1C DEB", "group": "fengyun-1c-debris", "lat": 72.31647320009345, "lon": -76.55763373940229, "alt_km": 777.5467084493921, "timestamp": "2025-12-26T09:30:53.920739+00:00", "meta": {"OBJECT_NAME": "FENGYUN 1C DEB", "OBJECT_ID": "1999-025BVQ", "EPOCH": "2025-12-25T21:12:10.133568", "MEAN_MOTION": 14.22187225, "ECCENTRICITY": 0.00528393, "INCLINATION": 98.8965, "RA_OF_ASC_NODE": 73.4999, "ARG_OF_PERICENTER": 135.4454, "MEAN_ANOMALY": 225.0989, "EPHEMERIS_TYPE": 0, "CLASSIFICATION_TYPE": "U", "NORAD_CAT_ID": 31476, "ELEMENT_SET_NO": 999, "REV_AT_EPOCH": 95886, "BSTAR": 0.0015056741, "MEAN_MOTION_DOT": 3.343e-05, "MEAN_MOTION_DDOT": 0}, "tle": {"line1": "1 31476U 99025BVQ 25359.88345062  .00003343  00000+0  15057-2 0  9998", "line2": "2 31476  98.8965  73.4999 0052839 135.4454 225.0989 14.22187225958867"}}, "geometry": {"type": "Point", "coordinates": [-76.55763373940229, 72.31647320009345]}}, {"type": "Feature", "properties": {"norad_id": 31477, "name": "FENGYUN 1C DEB", "group": "fengyun-1c-debris", "lat": -12.98507784475505, "lon": -8.156065441243811, "alt_km": 808.5482712112671, "timestamp": "2025-12-26T09:30:53.920751+00:00", "meta": {"OBJECT_NAME": "FENGYUN 1C DEB", "OBJECT_ID": "1999-025BVR", "EPOCH": "2025-12-23T16:32:04.337376", "MEAN_MOTION": 14.02935294, "ECCENTRICITY": 0.01097133, "INCLINATION": 98.8872, "RA_OF_ASC_NODE": 347.133, "ARG_OF_PERICENTER": 358.4238, "MEAN_ANOMALY": 1.6568, "EPHEMERIS_TYPE": 0, "CLASSIFICATION_TYPE": "U", "NORAD_CAT_ID": 31477, "ELEMENT_SET_NO": 999, "REV_AT_EPOCH": 95557, "BSTAR": 0.00038195011, "MEAN_MOTION_DOT": 5.81e-06, "MEAN_MOTION_DDOT": 0}, "tle": {"line1": "1 31477U 99025BVR 25357.68893909  .00000581  00000+0  38195-3 0  9993", "line2": "2 31477  98.8872 347.1330 0109713 358.4238   1.6568 14.02935294955577"}}, "geometry": {"type": "Point", "coordinates": [-8.156065441243811, -12.98507784475505]}}, {"type": "Feature", "properties": {"norad_id": 31480, "name": "FENGYUN 1C DEB", "group": "fengyun-1c-debris", "lat": 81.18213798017018, "lon": 101.17087175907561, "alt_km": 914.4098712149098, "timestamp": "2025-12-26T09:30:53.920760+00:00", "meta": {"OBJECT_NAME": "FENGYUN 1C DEB", "OBJECT_ID": "1999-025BVU", "EPOCH": "2025-12-24T20:46:14.124000", "MEAN_MOTION": 13.90037757, "ECCENTRICITY": 0.03436956, "INCLINATION": 98.3386, "RA_OF_ASC_NODE": 208.809, "ARG_OF_PERICENTER": 187.5724, "MEAN_ANOMALY": 172.017, "EPHEMERIS_TYPE": 0, "CLASSIFICATION_TYPE": "U", "NORAD_CAT_ID": 31480, "ELEMENT_SET_NO": 999, "REV_AT_EPOCH": 93564, "BSTAR": 0.002597268, "MEAN_MOTION_DOT": 5.128e-05, "MEAN_MOTION_DDOT": 0}, "tle": {"line1": "1 31480U 99025BVU 25358.86544125  .00005128  00000+0  25973-2 0  9992", "line2": "2 31480  98.3386 208.8090 0343695 187.5724 172.0170 13.90037757935643"}}, "geometry": {"type": "Point", "coordinates": [101.17087175907561, 81.18213798017018]}}, {"type": "Feature", "properties": {"norad_id": 31482, "name": "FENGYUN 1C DEB", "group": "fengyun-1c-debris", "lat": -66.11692016367728, "lon": 164.41973283809213, "alt_km": 716.8381657882928, "timestamp": "2025-12-26T09:30:53.920771+00:00", "meta": {"OBJECT_NAME": "FENGYUN 1C DEB", "OBJECT_ID": "1999-025BVW", "EPOCH": "2025-12-24T06:15:25.833024", "MEAN_MOTION": 14.3570192, "ECCENTRICITY": 0.00887436, "INCLINATION": 98.3828, "RA_OF_ASC_NODE": 1.7956, "ARG_OF_PERICENTER": 247.5543, "MEAN_ANOMALY": 127.5422, "EPHEMERIS_TYPE": 0, "CLASSIFICATION_TYPE": "U", "NORAD_CAT_ID": 31482, "ELEMENT_SET_NO": 999, "REV_AT_EPOCH": 97295, "BSTAR": 0.0006698744, "MEAN_MOTION_DOT": 1.979e-05, "MEAN_MOTION_DDOT": 0}, "tle": {"line1": "1 31482U 99025BVW 25358.26071566  .00001979  00000+0  66987-3 0  9993", "line2": "2 31482  98.3828   1.7956 0088743 247.5543 127.5422 14.35701920972953"}}, "geometry": {"type": "Point", "coordinates": [164.41973283809213, -66.11692016367728]}}, {"type": "Feature", "properties": {"norad_id": 31483, "name": "FENGYUN 1C DEB", "group": "fengyun-1c-debris", "lat": -40.76470030924186, "lon": 125.08666648696091, "alt_km": 774.7786231265181, "timestamp": "2025-12-26T09:30:53.920781+00:00", "meta": {"OBJECT_NAME": "FENGYUN 1C DEB", "OBJECT_ID": "1999-025BVX", "EPOCH": "2025-12-25T16:20:58.735104", "MEAN_MOTION": 14.16165365, "ECCENTRICITY": 0.01178017, "INCLINATION": 102.5049, "RA_OF_ASC_NODE": 315.1162, "ARG_OF_PERICENTER": 188.5674, "MEAN_ANOMALY": 347.9676, "EPHEMERIS_TYPE": 0, "CLASSIFICATION_TYPE": "U", "NORAD_CAT_ID": 31483, "ELEMENT_SET_NO": 999, "REV_AT_EPOCH": 94889, "BSTAR": 0.002430612, "MEAN_MOTION_DOT": 5.074e-05, "MEAN_MOTION_DDOT": 0}, "tle": {"line1": "1 31483U 99025BVX 25359.68123536  .00005074  00000+0  24306-2 0  9994", "line2": "2 31483 102.5049 315.1162 0117801 188.5674 347.9676 14.16165365948896"}}, "geometry": {"type": "Point", "coordinates": [125.08666648696091, -40.76470030924186]}}, {"type": "Feature", "properties": {"norad_id": 31484, "name": "FENGYUN 1C DEB", "group": "fengyun-1c-debris", "lat": 39.90385070278185, "lon": 132.2944533396354, "alt_km": 665.6751358208239, "timestamp": "2025-12-26T09:30:53.920792+00:00", "meta": {"OBJECT_NAME": "FENGYUN 1C DEB", "OBJECT_ID": "1999-025BVY", "EPOCH": "2025-12-23T01:26:10.111200", "MEAN_MOTION": 14.50731885, "ECCENTRICITY": 0.00830007, "INCLINATION": 101.8064, "RA_OF_ASC_NODE": 297.5559, "ARG_OF_PERICENTER": 124.1407, "MEAN_ANOMALY": 236.7682, "EPHEMERIS_TYPE": 0, "CLASSIFICATION_TYPE": "U", "NORAD_CAT_ID": 31484, "ELEMENT_SET_NO": 999, "REV_AT_EPOCH": 64387, "BSTAR": 0.0046453294, "MEAN_MOTION_DOT": 0.00019079, "MEAN_MOTION_DDOT": 0}, "tle": {"line1": "1 31484U 99025BVY 25357.05983925  .00019079  00000+0  46453-2 0  9997", "line2": "2 31484 101.8064 297.5559 0083000 124.1407 236.7682 14.50731885643878"}}, "geometry": {"type": "Point", "coordinates": [132.2944533396354, 39.90385070278185]}}, {"type": "Feature", "properties": {"norad_id": 31485, "name": "FENGYUN 1C DEB", "group": "fengyun-1c-debris", "lat": -15.868616840805947, "lon": 7.441759492465692, "alt_km": 1117.7053726467384, "timestamp": "2025-12-26T09:30:53.920802+00:00", "meta": {"OBJECT_NAME": "FENGYUN 1C DEB", "OBJECT_ID": "1999-025BVZ", "EPOCH": "2025-12-24T09:54:22.685184", "MEAN_MOTION": 13.40097736, "ECCENTRICITY": 0.04462437, "INCLINATION": 102.7177, "RA_OF_ASC_NODE": 188.6326, "ARG_OF_PERICENTER": 293.7591, "MEAN_ANOMALY": 61.7335, "EPHEMERIS_TYPE": 0, "CLASSIFICATION_TYPE": "U", "NORAD_CAT_ID": 31485, "ELEMENT_SET_NO": 999, "REV_AT_EPOCH": 90601, "BSTAR": 0.0027619482, "MEAN_MOTION_DOT": 2.633e-05, "MEAN_MOTION_DDOT": 0}, "tle": {"line1": "1 31485U 99025BVZ 25358.41276256  .00002633  00000+0  27619-2 0  9992", "line2": "2 31485 102.7177 188.6326 0446243 293.7591  61.7335 13.40097736906012"}}, "geometry": {"type": "Point", "coordinates": [7.441759492465692, -15.868616840805947]}}, {"type": "Feature", "properties": {"norad_id": 31487, "name": "FENGYUN 1C DEB", "group": "fengyun-1c-debris", "lat": -77.33773229177768, "lon": -107.77370459295923, "alt_km": 821.7726877709601, "timestamp": "2025-12-26T09:30:53.920812+00:00", "meta": {"OBJECT_NAME": "FENGYUN 1C DEB", "OBJECT_ID": "1999-025BWB", "EPOCH": "2025-12-24T18:29:42.583200", "MEAN_MOTION": 13.97784189, "ECCENTRICITY": 0.01193328, "INCLINATION": 102.4136, "RA_OF_ASC_NODE": 171.4168, "ARG_OF_PERICENTER": 277.9548, "MEAN_ANOMALY": 97.273, "EPHEMERIS_TYPE": 0, "CLASSIFICATION_TYPE": "U", "NORAD_CAT_ID": 31487, "ELEMENT_SET_NO": 999, "REV_AT_EPOCH": 94580, "BSTAR": 0.0017084916, "MEAN_MOTION_DOT": 2.495e-05, "MEAN_MOTION_DDOT": 0}, "tle": {"line1": "1 31487U 99025BWB 25358.77063175  .00002495  00000+0  17085-2 0  9999", "line2": "2 31487 102.4136 171.4168 0119332 277.9548  97.2730 13.97784189945802"}}, "geometry": {"type": "Point", "coordinates": [-107.77370459295923, -77.33773229177768]}}, {"type": "Feature", "properties": {"norad_id": 31491, "name": "FENGYUN 1C DEB", "group": "fengyun-1c-debris", "lat": -11.171378870287473, "lon": -88.50533383857342, "alt_km": 856.0456545629786, "timestamp": "2025-12-26T09:30:53.920822+00:00", "meta": {"OBJECT_NAME": "FENGYUN 1C DEB", "OBJECT_ID": "1999-025BWE", "EPOCH": "2025-12-25T23:24:11.230272", "MEAN_MOTION": 14.17348825, "ECCENTRICITY": 0.00501915, "INCLINATION": 99.3079, "RA_OF_ASC_NODE": 269.1977, "ARG_OF_PERICENTER": 230.8309, "MEAN_ANOMALY": 128.84, "EPHEMERIS_TYPE": 0, "CLASSIFICATION_TYPE": "U", "NORAD_CAT_ID": 31491, "ELEMENT_SET_NO": 999, "REV_AT_EPOCH": 63915, "BSTAR": 0.0017221262, "MEAN_MOTION_DOT": 3.48e-05, "MEAN_MOTION_DDOT": 0}, "tle": {"line1": "1 31491U 99025BWE 25359.97512998  .00003480  00000+0  17221-2 0  9996", "line2": "2 31491  99.3079 269.1977 0050191 230.8309 128.8400 14.17348825639159"}}, "geometry": {"type": "Point", "coordinates": [-88.50533383857342, -11.171378870287473]}}, {"type": "Feature", "properties": {"norad_id": 31492, "name": "FENGYUN 1C DEB", "group": "fengyun-1c-debris", "lat": -3.2178593102108404, "lon": 168.09896002107024, "alt_km": 621.3365083635881, "timestamp": "2025-12-26T09:30:53.920832+00:00", "meta": {"OBJECT_NAME": "FENGYUN 1C DEB", "OBJECT_ID": "1999-025BWF", "EPOCH": "2025-12-22T22:16:59.719872", "MEAN_MOTION": 14.71117312, "ECCENTRICITY": 0.00645708, "INCLINATION": 98.856, "RA_OF_ASC_NODE": 163.8283, "ARG_OF_PERICENTER": 336.971, "MEAN_ANOMALY": 22.8602, "EPHEMERIS_TYPE": 0, "CLASSIFICATION_TYPE": "U", "NORAD_CAT_ID": 31492, "ELEMENT_SET_NO": 999, "REV_AT_EPOCH": 96656, "BSTAR": 0.0033267446, "MEAN_MOTION_DOT": 0.00021138, "MEAN_MOTION_DDOT": 0}, "tle": {"line1": "1 31492U 99025BWF 25356.92846898  .00021138  00000+0  33267-2 0  9996", "line2": "2 31492  98.8560 163.8283 0064570 336.9710  22.8602 14.71117312966569"}}, "geometry": {"type": "Point", "coordinates": [168.09896002107024, -3.2178593102108404]}}]}